GPS BIIR-5  (PRN 22)    
1 26407U 00040A   26137.62257807  .00000041  00000+0  00000+0 0  9992
2 26407  54.8564 216.3764 0121388 302.3549 232.8406  2.00557372189331
GPS BIIR-8  (PRN 16)    
1 27663U 03005A   26137.29912992  .00000043  00000+0  00000+0 0  9999
2 27663  54.8873 216.1962 0147996  53.0145  24.2078  2.00562151170690
GPS BIIR-11 (PRN 19)    
1 28190U 04009A   26137.46271089 -.00000030  00000+0  00000+0 0  9991
2 28190  54.8563 276.9279 0114751 171.7221 177.4709  2.00555598162323
GPS BIIR-13 (PRN 02)    
1 28474U 04045A   26137.16458685 -.00000064  00000+0  00000+0 0  9999
2 28474  55.1543 326.1453 0169903 315.6024 243.3828  2.00554371157801
GPS BIIRM-1 (PRN 17)    
1 28874U 05038A   26137.45178032 -.00000028  00000+0  00000+0 0  9993
2 28874  54.9043 274.4173 0127705 295.9631  72.7130  2.00567691151228
GPS BIIRM-2 (PRN 31)    
1 29486U 06042A   26137.23067567  .00000084  00000+0  00000+0 0  9996
2 29486  54.7060 152.5678 0106164  53.7708  53.2316  2.00571540143771
GPS BIIRM-3 (PRN 12)    
1 29601U 06052A   26137.00699953  .00000046  00000+0  00000+0 0  9999
2 29601  54.9391 215.2422 0085868  90.5552 270.4999  2.00556386142787
GPS BIIRM-4 (PRN 15)    
1 32260U 07047A   26137.31176564 -.00000018  00000+0  00000+0 0  9991
2 32260  54.0735  81.3377 0165541  86.8037 275.0524  2.00556691136191
GPS BIIRM-5 (PRN 29)    
1 32384U 07062A   26137.60189649 -.00000028  00000+0  00000+0 0  9996
2 32384  55.0573 275.3816 0035133 163.6429 172.8577  2.00558095134891
GPS BIIRM-6 (PRN 07)    
1 32711U 08012A   26137.22573810  .00000083  00000+0  00000+0 0  9991
2 32711  54.4922 151.1616 0210484 247.4279 110.3724  2.00571548133138
GPS BIIRM-8 (PRN 05)    
1 35752U 09043A   26137.36487006 -.00000073  00000+0  00000+0 0  9990
2 35752  56.1917  28.6625 0053368  81.9855  30.4674  2.00555812122741
GPS BIIF-1  (PRN 25)    
1 36585U 10022A   26137.60907736  .00000049  00000+0  00000+0 0  9990
2 36585  54.2733 209.7940 0126407  66.1106 340.3358  2.00560837116986
GPS BIIF-3  (PRN 24)    
1 38833U 12053A   26137.40512145  .00000074  00000+0  00000+0 0  9996
2 38833  53.5797 144.8603 0178732  65.3642 296.5167  2.00566950 98829
GPS BIIF-4  (PRN 27)    
1 39166U 13023A   26135.27691818 -.00000031  00000+0  00000+0 0  9996
2 39166  54.5310 270.3138 0141799  50.8427 310.3815  2.00563577 95220
GPS BIIF-5  (PRN 30)    
1 39533U 14008A   26137.27246840  .00000080  00000+0  00000+0 0  9994
2 39533  53.6488 150.5806 0084107 230.6928 128.5991  2.00557756 89069
GPS BIIF-6  (PRN 06)    
1 39741U 14026A   26137.54793651 -.00000065  00000+0  00000+0 0  9996
2 39741  56.5126 332.7102 0038547 326.8811  32.8970  2.00563154 87926
GPS BIIF-7  (PRN 09)    
1 40105U 14045A   26137.14053360 -.00000001  00000+0  00000+0 0  9995
2 40105  55.3338  89.7013 0032188 118.6478 241.6385  2.00556251 85451
GPS BIIF-8  (PRN 03)    
1 40294U 14068A   26137.01296104 -.00000070  00000+0  00000+0 0  9996
2 40294  56.9669  32.1560 0066118  69.4768 291.2683  2.00574175 84588
GPS BIIF-9  (PRN 26)    
1 40534U 15013A   26137.14909112  .00000056  00000+0  00000+0 0  9991
2 40534  53.1707 205.4614 0109029  40.0331 320.8507  2.00553149 81200
GPS BIIF-10 (PRN 08)    
1 40730U 15033A   26136.80957445 -.00000025  00000+0  00000+0 0  9992
2 40730  54.0080 268.3797 0115005  30.0777 330.5547  2.00557775 79361
GPS BIIF-11 (PRN 10)    
1 41019U 15062A   26136.86684735 -.00000070  00000+0  00000+0 0  9990
2 41019  56.9392  32.0179 0111335 231.3553 127.6801  2.00566911 77200
GPS BIIF-12 (PRN 32)    
1 41328U 16007A   26136.95576427  .00000002  00000+0  00000+0 0  9995
2 41328  55.5056  90.6972 0096069 247.2726 111.6736  2.00553101 75216
GPS BIII-1  (PRN 04)    
1 43873U 18109A   26137.34343852  .00000006  00000+0  00000+0 0  9999
2 43873  55.6642  93.4031 0037966 198.6881 334.6174  2.00560042 54452
GPS BIII-2  (PRN 18)    
1 44506U 19056A   26135.98166581 -.00000060  00000+0  00000+0 0  9996
2 44506  55.6526 332.4228 0060472 197.4166 335.4017  2.00569160 49428
GPS BIII-3  (PRN 23)    
1 45854U 20041A   26136.09318970 -.00000070  00000+0  00000+0 0  9994
2 45854  56.6497  30.1892 0062712 204.8386 348.2040  2.00559119 43399
GPS BIII-4  (PRN 14)    
1 46826U 20078A   26137.29931362  .00000048  00000+0  00000+0 0  9997
2 46826  53.9840 212.0316 0072187 206.3251 112.9232  2.00564710 40881
GPS BIII-5  (PRN 11)    
1 48859U 21054A   26137.34480045 -.00000068  00000+0  00000+0 0  9996
2 48859  55.1876 333.6992 0024566 229.1390 308.8618  2.00570739 36132
GPS BIII-6  (PRN 28)    
1 55268U 23009A   26136.54568412  .00000092  00000+0  00000+0 0  9992
2 55268  55.1176 149.7626 0006007 315.0109  43.8407  2.00573591 24600
GPS BIII-7  (PRN 01)    
1 62339U 24242A   26136.41882243 -.00000065  00000+0  00000+0 0  9997
2 62339  54.8633 335.4693 0017135   3.3978 346.4178  2.00570725 10613
GPS BIII-8  (PRN 21)    
1 64202U 25116A   26137.42204616 -.00000073  00000+0  00000+0 0  9992
2 64202  55.2167  32.3689 0008619 335.0993 201.3412  2.00577774  7255
GPS BIII-9  (PRN 20)    
1 67588U 26017A   26136.78799381  .00000000  00000+0  00000+0 0  9998
2 67588  55.0690  90.0149 0022897 255.7519 103.9567  2.00571689430989
